satname,norad_id,inclination_deg,eccentricity,mean_motion_rev_per_day,perigee_km,apogee_km,l1,l2
STARLINK-1365,45590,53.055,0.0001132,15.06352623,546.5727995312036,548.140731319696,1 45590U 20025BM  25349.64344751  .00008914  00000+0  61734-3 0  9994,2 45590  53.0550 123.9144 0001132 105.2269 254.8845 15.06352623312431
STARLINK-1443,45660,53.0547,0.0001156,15.06391035,546.4384610387588,548.0396079779366,1 45660U 20035D   25350.29214778  .00001175  00000+0  97783-4 0  9997,2 45660  53.0547  81.0073 0001156  89.4280 270.6842 15.06391035306168
STARLINK-1446,45663,53.0269,0.0002726,15.38051269,450.0105135484664,453.7342346592268,1 45663U 20035G   25350.33465473  .00043927  00000+0  11595-2 0  9991,2 45663  53.0269  34.1114 0002726  18.2449 341.8651 15.38051269306827
STARLINK-1448,45665,53.055,0.0001385,15.06400093,546.2521121708887,548.1704336424846,1 45665U 20035J   25350.22948493 -.00000949  00000+0 -44832-4 0  9990,2 45665  53.0550  81.2840 0001385  89.4410 270.6737 15.06400093306146
STARLINK-1451,45668,53.0551,0.0001414,15.06398234,546.2377254277899,548.1962155306401,1 45668U 20035M   25350.23321208  .00000125  00000+0  27300-4 0  9998,2 45668  53.0551  81.5875 0001414  95.6625 264.4525 15.06398234306151
STARLINK-1452,45669,53.0387,0.0004901,15.32037528,466.3778849595992,473.0901681398227,1 45669U 20035N   25349.92082205  .00025514  00000+0  82220-3 0  9994,2 45669  53.0387  56.6431 0004901 155.2479 204.8757 15.32037528306479
STARLINK-1453,45670,53.0544,0.0001874,15.2622081,485.8354704351832,488.4085695158692,1 45670U 20035P   25350.33337963  .00033260  00000+0  12755-2 0  9999,2 45670  53.0544  49.2459 0001874  87.0868 136.2772 15.26220810  5791
STARLINK-1454,45671,53.0543,0.0001451,15.06394326,546.2240773866033,548.2338185847084,1 45671U 20035Q   25350.25528940  .00002950  00000+0  21687-3 0  9995,2 45671  53.0543  81.1735 0001451  88.5739 271.5417 15.06394326306141
STARLINK-1456,45673,53.0545,0.000128,15.15834676,517.562955366493,519.3284805422891,1 45673U 20035S   25350.33337963  .00989599  00000+0  47613-1 0  9997,2 45673  53.0545  80.6615 0001280  89.7322 336.5578 15.15834676  5690
STARLINK-1457,45674,53.0514,0.000647,15.48523193,416.64642845078197,425.44457060517107,1 45674U 20035T   25350.32442373  .00091688  00000+0  16818-2 0  9996,2 45674  53.0514  70.7845 0006470 344.0747  16.0055 15.48523193306280
STARLINK-1458,45675,53.0551,0.0001387,15.06403204,546.2411936741601,548.1622826401253,1 45675U 20035U   25350.00096161 -.00000589  00000+0 -20678-4 0  9995,2 45675  53.0551  82.3112 0001387  80.9602 279.1544 15.06403204306083
STARLINK-1460,45676,53.0543,0.0001304,15.06400441,546.3071410614157,548.1132716128286,1 45676U 20035V   25350.23685402 -.00000772  00000+0 -32920-4 0  9990,2 45676  53.0543  81.2532 0001304  99.3027 260.8110 15.06400441306113
STARLINK-1392,45677,53.0536,0.0001422,15.06399471,546.2283944520741,548.1979640430518,1 45677U 20035W   25349.98252313 -.00001601  00000+0 -88596-4 0  9994,2 45677  53.0536  82.3964 0001422  89.1337 270.9815 15.06399471306113
STARLINK-1394,45679,53.0556,0.0002155,15.15280113,518.6417157711876,521.6148681120148,1 45679U 20035Y   25350.33337963  .00056342  00000+0  29514-2 0  9995,2 45679  53.0556  70.7054 0002155  85.2333  92.3985 15.15280113  5791
STARLINK-1402,45685,53.0527,0.0004137,15.31601052,468.20146750040476,473.86847238833616,1 45685U 20035AE  25350.35138983  .00005732  00000+0  19693-3 0  9990,2 45685  53.0527  56.1483 0004137 315.5816  44.4851 15.31601052306529
STARLINK-1404,45686,53.056,0.0001212,15.063884,546.4077539415221,548.0864670499068,1 45686U 20035AF  25350.27096164  .00001922  00000+0  14793-3 0  9999,2 45686  53.0560  71.1031 0001212  99.8401 260.2725 15.06388400306301
STARLINK-1413,45689,53.0546,0.0001708,15.06405714,546.0111988640447,548.3768919491567,1 45689U 20035AJ  25350.22303357  .00001012  00000+0  86794-4 0  9993,2 45689  53.0546  71.3149 0001708  91.0423 269.0762 15.06405714306203
STARLINK-1417,45693,53.0539,0.0002298,15.07900683,541.0256065331314,544.2063846098954,1 45693U 20035AN  25350.20656802  .00010924  00000+0  72145-3 0  9998,2 45693  53.0539  71.2557 0002298 358.5644   1.5339 15.07900683306286
STARLINK-1420,45695,53.0562,0.0001374,15.06428823,546.1716902486933,548.0747517574246,1 45695U 20035AQ  25350.35294010  .00010090  00000+0  69477-3 0  9993,2 45695  53.0562  50.7229 0001374  97.1057 263.0088 15.06428823306590
STARLINK-1422,45696,53.0548,0.0001071,15.06401014,546.46674567835,547.9501546737774,1 45696U 20035AR  25349.96503371  .00004913  00000+0  34850-3 0  9996,2 45696  53.0548  72.4744 0001071  87.8953 272.2159 15.06401014306249
STARLINK-1351,45697,53.0547,0.0001451,15.06394081,546.2248281721777,548.2345695881922,1 45697U 20035AS  25350.33914454 -.00000240  00000+0  27705-5 0  9991,2 45697  53.0547  50.7963 0001451  86.9536 273.1619 15.06394081306594
STARLINK-1398,45699,53.0477,0.000301,15.59682614,386.5381348607334,390.61169543365304,1 45699U 20035AU  25350.32668908  .00143903  00000+0  17441-2 0  9998,2 45699  53.0477 354.5217 0003010  16.6794 343.4317 15.59682614307388
STARLINK-1400,45700,53.0542,0.0001405,15.06400807,546.2360734757249,548.1820957254986,1 45700U 20035AV  25350.31333934  .00000100  00000+0  25611-4 0  9999,2 45700  53.0542  50.9077 0001405  85.7267 274.3882 15.06400807306587
STARLINK-1403,45701,53.0559,0.0001475,15.06398437,546.1948586934313,548.2378379311822,1 45701U 20035AW  25350.34283951  .00003016  00000+0  22127-3 0  9993,2 45701  53.0559  50.7800 0001475  97.6222 262.4934 15.06398437306589
STARLINK-1407,45703,53.0413,0.0007456,15.45586532,424.5793191096209,434.73109885165286,1 45703U 20035AY  25350.32118538  .00016619  00000+0  34781-3 0  9993,2 45703  53.0413 357.2980 0007456 197.7972 162.2774 15.45586532307345
STARLINK-1411,45706,53.0507,0.0001556,15.48034219,421.419009997855,423.5353611324026,1 45706U 20035BB  25350.33337963  .00113449  00000+0  21101-2 0  9992,2 45706  53.0507  24.3865 0001556  76.8247 324.3399 15.48034219  5907
STARLINK-1423,45710,53.0549,0.0001418,15.06391982,546.254114152347,548.2181499725993,1 45710U 20035BF  25349.90420811 -.00001374  00000+0 -73409-4 0  9998,2 45710  53.0549  52.7468 0001418  88.3860 271.7292 15.06391982306524
STARLINK-1433,45711,53.0549,0.0001332,15.064104,546.2572314372737,548.1021358017915,1 45711U 20035BG  25350.35020937  .00004874  00000+0  34575-3 0  9991,2 45711  53.0549  50.7441 0001332  80.4251 279.6888 15.06410400306587
STARLINK-1434,45712,53.0519,0.0001997,15.18734061,508.29000932456074,511.04099764445345,1 45712U 20035BH  25350.32137181  .00017442  00000+0  84278-3 0  9999,2 45712  53.0519  43.6115 0001997 236.6930 123.3873 15.18734061306696
STARLINK-1465,45731,53.054,0.0001498,15.0639614,546.1859693214283,548.2608072937655,1 45731U 20038B   25350.11800042  .00002041  00000+0  15587-3 0  9999,2 45731  53.0540 251.7859 0001498  83.1153 277.0006 15.06396140303596
STARLINK-1471,45735,53.0489,0.0001637,15.43248297,435.41441167307767,437.6455336399267,1 45735U 20038F   25350.24417966  .00012919  00000+0  29494-3 0  9993,2 45735  53.0489 179.9499 0001637 103.1111 257.0077 15.43248297304626
STARLINK-1474,45738,53.0336,0.0001022,15.76596657,339.4049403231875,340.77814623743416,1 45738U 20038J   25349.42801582  .00091545  00000+0  56050-3 0  9995,2 45738  53.0336 131.5090 0001022  91.7972 268.3164 15.76596657305227
STARLINK-1480,45741,53.0548,0.000219,15.11848033,529.0512777994036,532.0772889615246,1 45741U 20038M   25350.33337963  .00007607  00000+0  45655-3 0  9993,2 45741  53.0548 250.7232 0002190 101.6486 135.2742 15.11848033  5796
STARLINK-1500,45744,53.0376,0.0001896,15.30119511,474.1559644798126,476.75484672001494,1 45744U 20038Q   25349.93309321  .00014691  00000+0  50839-3 0  9998,2 45744  53.0376 224.1898 0001896  60.9819 299.1370 15.30119511303971
STARLINK-1504,45746,53.026,0.0003454,15.45287408,428.1819966463181,432.88542637382943,1 45746U 20038S   25350.24744643  .00076256  00000+0  15694-2 0  9990,2 45746  53.0260 182.7814 0003454 106.8283 253.3101 15.45287408304577
STARLINK-1506,45747,53.0686,0.0002721,15.23342122,493.89784725231493,497.6386264822195,1 45747U 20038T   25350.08523636  .00020699  00000+0  87167-3 0  9995,2 45747  53.0686 228.2204 0002721  48.3231 311.7998 15.23342122303931
STARLINK-1464,45751,53.0538,0.0001295,15.06406455,546.2949442873323,548.0886044398912,1 45751U 20038X   25350.10139717 -.00004265  00000+0 -26758-3 0  9998,2 45751  53.0538 231.8605 0001295 100.1514 259.9622 15.06406455303885
STARLINK-1477,45754,53.0519,0.0006947,15.09217862,533.7836076638405,543.3937062916448,1 45754U 20038AA  25350.00152861  .00015767  00000+0  99577-3 0  9991,2 45754  53.0519 231.7984 0006947 104.5349 255.6412 15.09217862303873
STARLINK-1478,45755,53.0532,0.000157,15.0639999,546.1243088584288,548.2988683152453,1 45755U 20038AB  25350.06822449  .00000547  00000+0  55611-4 0  9996,2 45755  53.0532 232.0065 0001570  91.3130 268.8039 15.06399990303861
STARLINK-1484,45756,53.0109,4.98e-05,15.70518529,357.07861213461547,357.7494730184553,1 45756U 20038AC  25350.09536655  .00077191  00000+0  61500-3 0  9993,2 45756  53.0109 118.0519 0000498 353.4923   6.6087 15.70518529305460
STARLINK-1493,45759,53.0542,0.0001529,15.06390038,546.1831997388554,548.3009806646396,1 45759U 20038AF  25350.12351947  .00000519  00000+0  53718-4 0  9992,2 45759  53.0542 231.7599 0001529  80.2922 279.8239 15.06390038303873
STARLINK-1494,45760,53.052,0.0005201,15.55692173,396.6159313918197,403.6666964939823,1 45760U 20038AG  25349.89157174  .00029339  00000+0  42425-3 0  9995,2 45760  53.0520 202.7356 0005201 146.5320 213.6020 15.55692173304277
STARLINK-1502,45764,53.0532,0.000152,15.06401049,546.1556904141053,548.2609953983492,1 45764U 20038AL  25349.95764631  .00001320  00000+0  10746-3 0  9999,2 45764  53.0532 232.5066 0001520  94.8091 265.3072 15.06401049303864
